CCSDS_OMM_VERS = 2.0
CREATION_DATE  = 
ORIGINATOR     = 

OBJECT_NAME    = STARLINK-36058
OBJECT_ID      = 2025-270D
CENTER_NAME    = EARTH
REF_FRAME      = TEME
TIME_SYSTEM    = UTC
MEAN_ELEMENT_THEORY = SGP/SGP4

EPOCH          = 2025-12-17T19:44:34.946880
MEAN_MOTION    = 15.50587002
ECCENTRICITY   = .00024667
INCLINATION    = 42.9987
RA_OF_ASC_NODE = 162.9977
ARG_OF_PERICENTER = 279.3538
MEAN_ANOMALY   = 80.7043

EPHEMERIS_TYPE = 0
CLASSIFICATION_TYPE = U
NORAD_CAT_ID   = 66591
ELEMENT_SET_NO = 999
REV_AT_EPOCH   = 513
BSTAR          = .13787493E-2
MEAN_MOTION_DOT = .81416E-3
MEAN_MOTION_DDOT = 0

CCSDS_OMM_VERS = 2.0
CREATION_DATE  = 
ORIGINATOR     = 

OBJECT_NAME    = STARLINK-36066
OBJECT_ID      = 2025-270E
CENTER_NAME    = EARTH
REF_FRAME      = TEME
TIME_SYSTEM    = UTC
MEAN_ELEMENT_THEORY = SGP/SGP4

EPOCH          = 2025-12-17T22:00:01.999584
MEAN_MOTION    = 15.40661166
ECCENTRICITY   = .00014741
INCLINATION    = 42.9990
RA_OF_ASC_NODE = 162.8287
ARG_OF_PERICENTER = 279.0675
MEAN_ANOMALY   = 91.0450

EPHEMERIS_TYPE = 0
CLASSIFICATION_TYPE = U
NORAD_CAT_ID   = 66592
ELEMENT_SET_NO = 999
REV_AT_EPOCH   = 513
BSTAR          = .22172832E-2
MEAN_MOTION_DOT = .93338E-3
MEAN_MOTION_DDOT = 0

CCSDS_OMM_VERS = 2.0
CREATION_DATE  = 
ORIGINATOR     = 

OBJECT_NAME    = STARLINK-36031
OBJECT_ID      = 2025-270F
CENTER_NAME    = EARTH
REF_FRAME      = TEME
TIME_SYSTEM    = UTC
MEAN_ELEMENT_THEORY = SGP/SGP4

EPOCH          = 2025-12-17T22:00:01.999584
MEAN_MOTION    = 15.40646780
ECCENTRICITY   = .00016392
INCLINATION    = 42.9991
RA_OF_ASC_NODE = 162.6170
ARG_OF_PERICENTER = 276.4256
MEAN_ANOMALY   = 180.7940

EPHEMERIS_TYPE = 0
CLASSIFICATION_TYPE = U
NORAD_CAT_ID   = 66593
ELEMENT_SET_NO = 999
REV_AT_EPOCH   = 523
BSTAR          = .19931991E-2
MEAN_MOTION_DOT = .83728E-3
MEAN_MOTION_DDOT = 0

CCSDS_OMM_VERS = 2.0
CREATION_DATE  = 
ORIGINATOR     = 

OBJECT_NAME    = STARLINK-36032
OBJECT_ID      = 2025-270G
CENTER_NAME    = EARTH
REF_FRAME      = TEME
TIME_SYSTEM    = UTC
MEAN_ELEMENT_THEORY = SGP/SGP4

EPOCH          = 2025-12-17T19:43:17.846976
MEAN_MOTION    = 15.49804242
ECCENTRICITY   = .00036321
INCLINATION    = 42.9993
RA_OF_ASC_NODE = 162.9918
ARG_OF_PERICENTER = 272.3929
MEAN_ANOMALY   = 87.6515

EPHEMERIS_TYPE = 0
CLASSIFICATION_TYPE = U
NORAD_CAT_ID   = 66594
ELEMENT_SET_NO = 999
REV_AT_EPOCH   = 494
BSTAR          = -.40847183E-2
MEAN_MOTION_DOT = -.226912E-2
MEAN_MOTION_DDOT = 0

CCSDS_OMM_VERS = 2.0
CREATION_DATE  = 
ORIGINATOR     = 

OBJECT_NAME    = STARLINK-35711
OBJECT_ID      = 2025-270H
CENTER_NAME    = EARTH
REF_FRAME      = TEME
TIME_SYSTEM    = UTC
MEAN_ELEMENT_THEORY = SGP/SGP4

EPOCH          = 2025-12-17T21:15:20.899584
MEAN_MOTION    = 15.50590901
ECCENTRICITY   = .00015736
INCLINATION    = 42.9988
RA_OF_ASC_NODE = 162.6103
ARG_OF_PERICENTER = 270.6428
MEAN_ANOMALY   = 89.4252

EPHEMERIS_TYPE = 0
CLASSIFICATION_TYPE = U
NORAD_CAT_ID   = 66595
ELEMENT_SET_NO = 999
REV_AT_EPOCH   = 525
BSTAR          = .6504249E-3
MEAN_MOTION_DOT = .38017E-3
MEAN_MOTION_DDOT = 0

CCSDS_OMM_VERS = 2.0
CREATION_DATE  = 
ORIGINATOR     = 

OBJECT_NAME    = STARLINK-35811
OBJECT_ID      = 2025-270J
CENTER_NAME    = EARTH
REF_FRAME      = TEME
TIME_SYSTEM    = UTC
MEAN_ELEMENT_THEORY = SGP/SGP4

EPOCH          = 2025-12-17T20:30:31.375584
MEAN_MOTION    = 15.40706381
ECCENTRICITY   = .00019709
INCLINATION    = 42.9990
RA_OF_ASC_NODE = 163.2440
ARG_OF_PERICENTER = 277.2355
MEAN_ANOMALY   = 82.8278

EPHEMERIS_TYPE = 0
CLASSIFICATION_TYPE = U
NORAD_CAT_ID   = 66596
ELEMENT_SET_NO = 999
REV_AT_EPOCH   = 524
BSTAR          = .51909652E-3
MEAN_MOTION_DOT = .21446E-3
MEAN_MOTION_DDOT = 0

CCSDS_OMM_VERS = 2.0
CREATION_DATE  = 
ORIGINATOR     = 

OBJECT_NAME    = STARLINK-35820
OBJECT_ID      = 2025-270K
CENTER_NAME    = EARTH
REF_FRAME      = TEME
TIME_SYSTEM    = UTC
MEAN_ELEMENT_THEORY = SGP/SGP4

EPOCH          = 2025-12-17T22:00:01.999584
MEAN_MOTION    = 15.40656755
ECCENTRICITY   = .00017045
INCLINATION    = 42.9991
RA_OF_ASC_NODE = 162.7672
ARG_OF_PERICENTER = 281.9078
MEAN_ANOMALY   = 113.0919

EPHEMERIS_TYPE = 0
CLASSIFICATION_TYPE = U
NORAD_CAT_ID   = 66597
ELEMENT_SET_NO = 999
REV_AT_EPOCH   = 534
BSTAR          = .21562534E-2
MEAN_MOTION_DOT = .90716E-3
MEAN_MOTION_DDOT = 0

CCSDS_OMM_VERS = 2.0
CREATION_DATE  = 
ORIGINATOR     = 

OBJECT_NAME    = STARLINK-35981
OBJECT_ID      = 2025-270L
CENTER_NAME    = EARTH
REF_FRAME      = TEME
TIME_SYSTEM    = UTC
MEAN_ELEMENT_THEORY = SGP/SGP4

EPOCH          = 2025-12-17T21:28:23.424384
MEAN_MOTION    = 15.40700992
ECCENTRICITY   = .000228
INCLINATION    = 42.9973
RA_OF_ASC_NODE = 162.6783
ARG_OF_PERICENTER = 273.1388
MEAN_ANOMALY   = 86.9207

EPHEMERIS_TYPE = 0
CLASSIFICATION_TYPE = U
NORAD_CAT_ID   = 66598
ELEMENT_SET_NO = 999
REV_AT_EPOCH   = 499
BSTAR          = .90974284E-3
MEAN_MOTION_DOT = .3789E-3
MEAN_MOTION_DDOT = 0

CCSDS_OMM_VERS = 2.0
CREATION_DATE  = 
ORIGINATOR     = 

OBJECT_NAME    = STARLINK-35930
OBJECT_ID      = 2025-270M
CENTER_NAME    = EARTH
REF_FRAME      = TEME
TIME_SYSTEM    = UTC
MEAN_ELEMENT_THEORY = SGP/SGP4

EPOCH          = 2025-12-17T21:13:23.471616
MEAN_MOTION    = 15.50598846
ECCENTRICITY   = .00010683
INCLINATION    = 42.9988
RA_OF_ASC_NODE = 162.6005
ARG_OF_PERICENTER = 266.9407
MEAN_ANOMALY   = 93.1331

EPHEMERIS_TYPE = 0
CLASSIFICATION_TYPE = U
NORAD_CAT_ID   = 66599
ELEMENT_SET_NO = 999
REV_AT_EPOCH   = 514
BSTAR          = .13212725E-2
MEAN_MOTION_DOT = .78002E-3
MEAN_MOTION_DDOT = 0

CCSDS_OMM_VERS = 2.0
CREATION_DATE  = 
ORIGINATOR     = 

OBJECT_NAME    = STARLINK-35980
OBJECT_ID      = 2025-270N
CENTER_NAME    = EARTH
REF_FRAME      = TEME
TIME_SYSTEM    = UTC
MEAN_ELEMENT_THEORY = SGP/SGP4

EPOCH          = 2025-12-17T22:00:01.999584
MEAN_MOTION    = 15.44215341
ECCENTRICITY   = .00012504
INCLINATION    = 42.9993
RA_OF_ASC_NODE = 162.4478
ARG_OF_PERICENTER = 282.0555
MEAN_ANOMALY   = 244.8262

EPHEMERIS_TYPE = 0
CLASSIFICATION_TYPE = U
NORAD_CAT_ID   = 66600
ELEMENT_SET_NO = 999
REV_AT_EPOCH   = 513
BSTAR          = -.48428722E-1
MEAN_MOTION_DOT = -.2026345E-1
MEAN_MOTION_DDOT = 0

CCSDS_OMM_VERS = 2.0
CREATION_DATE  = 
ORIGINATOR     = 

OBJECT_NAME    = STARLINK-35978
OBJECT_ID      = 2025-270P
CENTER_NAME    = EARTH
REF_FRAME      = TEME
TIME_SYSTEM    = UTC
MEAN_ELEMENT_THEORY = SGP/SGP4

EPOCH          = 2025-12-17T22:00:01.999584
MEAN_MOTION    = 15.40655259
ECCENTRICITY   = .00017481
INCLINATION    = 42.9988
RA_OF_ASC_NODE = 162.6757
ARG_OF_PERICENTER = 259.4078
MEAN_ANOMALY   = 172.9082

EPHEMERIS_TYPE = 0
CLASSIFICATION_TYPE = U
NORAD_CAT_ID   = 66601
ELEMENT_SET_NO = 999
REV_AT_EPOCH   = 507
BSTAR          = .19405954E-2
MEAN_MOTION_DOT = .8151E-3
MEAN_MOTION_DDOT = 0

CCSDS_OMM_VERS = 2.0
CREATION_DATE  = 
ORIGINATOR     = 

OBJECT_NAME    = STARLINK-36050
OBJECT_ID      = 2025-270Q
CENTER_NAME    = EARTH
REF_FRAME      = TEME
TIME_SYSTEM    = UTC
MEAN_ELEMENT_THEORY = SGP/SGP4

EPOCH          = 2025-12-17T20:27:17.826624
MEAN_MOTION    = 15.40704238
ECCENTRICITY   = .00016634
INCLINATION    = 42.9989
RA_OF_ASC_NODE = 163.2256
ARG_OF_PERICENTER = 270.9920
MEAN_ANOMALY   = 89.0746

EPHEMERIS_TYPE = 0
CLASSIFICATION_TYPE = U
NORAD_CAT_ID   = 66602
ELEMENT_SET_NO = 999
REV_AT_EPOCH   = 503
BSTAR          = .65267272E-3
MEAN_MOTION_DOT = .27061E-3
MEAN_MOTION_DDOT = 0

