STARLINK-36058          
1 66591U 25270D   25351.82262670  .00081416  00000+0  13787-2 0  9999
2 66591  42.9987 162.9977 0002466 279.3538  80.7043 15.50587002  5138
STARLINK-36066          
1 66592U 25270E   25351.91668981  .00093338  00000+0  22173-2 0  9990
2 66592  42.9990 162.8287 0001474 279.0675  91.0450 15.40661166  5133
STARLINK-36031          
1 66593U 25270F   25351.91668981  .00083728  00000+0  19932-2 0  9992
2 66593  42.9991 162.6170 0001639 276.4256 180.7940 15.40646780  5239
STARLINK-36032          
1 66594U 25270G   25351.82173434 -.00226912  00000+0 -40847-2 0  9992
2 66594  42.9993 162.9918 0003632 272.3929  87.6515 15.49804242  4940
STARLINK-35711          
1 66595U 25270H   25351.88565856  .00038017  00000+0  65042-3 0  9992
2 66595  42.9988 162.6103 0001573 270.6428  89.4252 15.50590901  5254
STARLINK-35811          
1 66596U 25270J   25351.85452981  .00021446  00000+0  51910-3 0  9991
2 66596  42.9990 163.2440 0001970 277.2355  82.8278 15.40706381  5246
STARLINK-35820          
1 66597U 25270K   25351.91668981  .00090716  00000+0  21563-2 0  9994
2 66597  42.9991 162.7672 0001704 281.9078 113.0919 15.40656755  5347
STARLINK-35981          
1 66598U 25270L   25351.89471556  .00037890  00000+0  90974-3 0  9999
2 66598  42.9973 162.6783 0002280 273.1388  86.9207 15.40700992  4998
STARLINK-35930          
1 66599U 25270M   25351.88429944  .00078002  00000+0  13213-2 0  9993
2 66599  42.9988 162.6005 0001068 266.9407  93.1331 15.50598846  5147
STARLINK-35980          
1 66600U 25270N   25351.91668981 -.02026345  00000+0 -48429-1 0  9999
2 66600  42.9993 162.4478 0001250 282.0555 244.8262 15.44215341  5130
STARLINK-35978          
1 66601U 25270P   25351.91668981  .00081510  00000+0  19406-2 0  9995
2 66601  42.9988 162.6757 0001748 259.4078 172.9082 15.40655259  5073
STARLINK-36050          
1 66602U 25270Q   25351.85228966  .00027061  00000+0  65267-3 0  9992
2 66602  42.9989 163.2256 0001663 270.9920  89.0746 15.40704238  5039
